[{"OBJECT_NAME":"S-NET A","OBJECT_ID":"2018-014J","EPOCH":"2026-03-09T17:45:22.875840","MEAN_MOTION":15.15637105,"ECCENTRICITY":0.00092363,"INCLINATION":97.5446,"RA_OF_ASC_NODE":334.3608,"ARG_OF_PERICENTER":10.8145,"MEAN_ANOMALY":349.3285,"EPHEMERIS_TYPE":0,"CLASSIFICATION_TYPE":"U","NORAD_CAT_ID":43188,"ELEMENT_SET_NO":999,"REV_AT_EPOCH":44369,"BSTAR":0.00039378194,"MEAN_MOTION_DOT":7.428e-5,"MEAN_MOTION_DDOT":0},{"OBJECT_NAME":"STARLINK-30479","OBJECT_ID":"2023-146H","EPOCH":"2026-03-09T22:00:01.999584","MEAN_MOTION":15.07912321,"ECCENTRICITY":0.00014858,"INCLINATION":42.9993,"RA_OF_ASC_NODE":312.0545,"ARG_OF_PERICENTER":264.1602,"MEAN_ANOMALY":3.5227,"EPHEMERIS_TYPE":0,"CLASSIFICATION_TYPE":"U","NORAD_CAT_ID":57898,"ELEMENT_SET_NO":999,"REV_AT_EPOCH":578,"BSTAR":0.10226617,"MEAN_MOTION_DOT":0.0175398,"MEAN_MOTION_DDOT":0}]
